[
  {
    "OBJECT_NAME": "STARLINK-35168",
    "OBJECT_ID": "25198T",
    "EPOCH": "2025-11-10T20:44:37.686912",
    "MEAN_MOTION": 15.39646989,
    "ECCENTRICITY": 0.000115,
    "INCLINATION": 53.1612,
    "RA_OF_ASC_NODE": 108.8754,
    "ARG_OF_PERICENTER": 57.9133,
    "MEAN_ANOMALY": 302.1983,
    "EPHEMERIS_TYPE": 0,
    "CLASSIFICATION_TYPE": "U",
    "NORAD_CAT_ID": 65509,
    "ELEMENT_SET_NO": 999,
    "REV_AT_EPOCH": 1034,
    "BSTAR": 0.0016188,
    "MEAN_MOTION_DOT": 0.00064962,
    "MEAN_MOTION_DDOT": 0.0,
    "TLE_LINE1": "1 65509U 25198T   25314.86432508  .00064962  00000+0  16188-2 0  9993",
    "TLE_LINE2": "2 65509  53.1612 108.8754 0001150  57.9133 302.1983 15.39646989 10347",
    "COMMENT": "Grouped by shell and plane from TLE"
  },
  {
    "OBJECT_NAME": "STARLINK-35122",
    "OBJECT_ID": "25198U",
    "EPOCH": "2025-11-10T20:37:56.411616",
    "MEAN_MOTION": 15.3966133,
    "ECCENTRICITY": 0.0001174,
    "INCLINATION": 53.1596,
    "RA_OF_ASC_NODE": 108.8442,
    "ARG_OF_PERICENTER": 59.3556,
    "MEAN_ANOMALY": 300.7565,
    "EPHEMERIS_TYPE": 0,
    "CLASSIFICATION_TYPE": "U",
    "NORAD_CAT_ID": 65510,
    "ELEMENT_SET_NO": 999,
    "REV_AT_EPOCH": 1034,
    "BSTAR": 0.00095624,
    "MEAN_MOTION_DOT": 0.00038092,
    "MEAN_MOTION_DDOT": 0.0,
    "TLE_LINE1": "1 65510U 25198U   25314.85968069  .00038092  00000+0  95624-3 0  9998",
    "TLE_LINE2": "2 65510  53.1596 108.8442 0001174  59.3556 300.7565 15.39661330 10342",
    "COMMENT": "Grouped by shell and plane from TLE"
  },
  {
    "OBJECT_NAME": "STARLINK-35124",
    "OBJECT_ID": "25198V",
    "EPOCH": "2025-11-10T20:31:15.357504",
    "MEAN_MOTION": 15.39647559,
    "ECCENTRICITY": 8.77e-05,
    "INCLINATION": 53.1594,
    "RA_OF_ASC_NODE": 108.8142,
    "ARG_OF_PERICENTER": 59.1372,
    "MEAN_ANOMALY": 300.9719,
    "EPHEMERIS_TYPE": 0,
    "CLASSIFICATION_TYPE": "U",
    "NORAD_CAT_ID": 65511,
    "ELEMENT_SET_NO": 999,
    "REV_AT_EPOCH": 1034,
    "BSTAR": 0.0014386,
    "MEAN_MOTION_DOT": 0.00057631,
    "MEAN_MOTION_DDOT": 0.0,
    "TLE_LINE1": "1 65511U 25198V   25314.85503886  .00057631  00000+0  14386-2 0  9996",
    "TLE_LINE2": "2 65511  53.1594 108.8142 0000877  59.1372 300.9719 15.39647559 10341",
    "COMMENT": "Grouped by shell and plane from TLE"
  },
  {
    "OBJECT_NAME": "STARLINK-35149",
    "OBJECT_ID": "25198W",
    "EPOCH": "2025-11-10T20:24:33.991488",
    "MEAN_MOTION": 15.39663919,
    "ECCENTRICITY": 7.96e-05,
    "INCLINATION": 53.1619,
    "RA_OF_ASC_NODE": 108.7857,
    "ARG_OF_PERICENTER": 61.3157,
    "MEAN_ANOMALY": 298.7928,
    "EPHEMERIS_TYPE": 0,
    "CLASSIFICATION_TYPE": "U",
    "NORAD_CAT_ID": 65512,
    "ELEMENT_SET_NO": 999,
    "REV_AT_EPOCH": 1034,
    "BSTAR": 0.002054,
    "MEAN_MOTION_DOT": 0.00082775,
    "MEAN_MOTION_DDOT": 0.0,
    "TLE_LINE1": "1 65512U 25198W   25314.85039342  .00082775  00000+0  20540-2 0  9994",
    "TLE_LINE2": "2 65512  53.1619 108.7857 0000796  61.3157 298.7928 15.39663919 10342",
    "COMMENT": "Grouped by shell and plane from TLE"
  },
  {
    "OBJECT_NAME": "STARLINK-35019",
    "OBJECT_ID": "25198X",
    "EPOCH": "2025-11-10T20:18:21.070080",
    "MEAN_MOTION": 15.39670925,
    "ECCENTRICITY": 0.0001253,
    "INCLINATION": 53.1628,
    "RA_OF_ASC_NODE": 108.7584,
    "ARG_OF_PERICENTER": 330.5536,
    "MEAN_ANOMALY": 29.5398,
    "EPHEMERIS_TYPE": 0,
    "CLASSIFICATION_TYPE": "U",
    "NORAD_CAT_ID": 65513,
    "ELEMENT_SET_NO": 999,
    "REV_AT_EPOCH": 1034,
    "BSTAR": 0.0013538,
    "MEAN_MOTION_DOT": 0.00054229,
    "MEAN_MOTION_DDOT": 0.0,
    "TLE_LINE1": "1 65513U 25198X   25314.84607720  .00054229  00000+0  13538-2 0  9997",
    "TLE_LINE2": "2 65513  53.1628 108.7584 0001253 330.5536  29.5398 15.39670925 10347",
    "COMMENT": "Grouped by shell and plane from TLE"
  },
  {
    "OBJECT_NAME": "STARLINK-35026",
    "OBJECT_ID": "25198Y",
    "EPOCH": "2025-11-10T20:11:39.809472",
    "MEAN_MOTION": 15.39677276,
    "ECCENTRICITY": 0.0001371,
    "INCLINATION": 53.1663,
    "RA_OF_ASC_NODE": 108.7305,
    "ARG_OF_PERICENTER": 318.1266,
    "MEAN_ANOMALY": 41.9633,
    "EPHEMERIS_TYPE": 0,
    "CLASSIFICATION_TYPE": "U",
    "NORAD_CAT_ID": 65514,
    "ELEMENT_SET_NO": 999,
    "REV_AT_EPOCH": 1034,
    "BSTAR": 0.0017013,
    "MEAN_MOTION_DOT": 0.00068393,
    "MEAN_MOTION_DDOT": 0.0,
    "TLE_LINE1": "1 65514U 25198Y   25314.84143298  .00068393  00000+0  17013-2 0  9992",
    "TLE_LINE2": "2 65514  53.1663 108.7305 0001371 318.1266  41.9633 15.39677276 10347",
    "COMMENT": "Grouped by shell and plane from TLE"
  },
  {
    "OBJECT_NAME": "STARLINK-35241",
    "OBJECT_ID": "25198Z",
    "EPOCH": "2025-11-11T03:52:22.616832",
    "MEAN_MOTION": 15.39624583,
    "ECCENTRICITY": 0.0003445,
    "INCLINATION": 53.1557,
    "RA_OF_ASC_NODE": 107.1681,
    "ARG_OF_PERICENTER": 89.0467,
    "MEAN_ANOMALY": 271.0932,
    "EPHEMERIS_TYPE": 0,
    "CLASSIFICATION_TYPE": "U",
    "NORAD_CAT_ID": 65515,
    "ELEMENT_SET_NO": 999,
    "REV_AT_EPOCH": 1039,
    "BSTAR": 0.0013594,
    "MEAN_MOTION_DOT": 0.0005438,
    "MEAN_MOTION_DDOT": 0.0,
    "TLE_LINE1": "1 65515U 25198Z   25315.16137288  .00054380  00000+0  13594-2 0  9992",
    "TLE_LINE2": "2 65515  53.1557 107.1681 0003445  89.0467 271.0932 15.39624583 10397",
    "COMMENT": "Grouped by shell and plane from TLE"
  },
  {
    "OBJECT_NAME": "STARLINK-35216",
    "OBJECT_ID": "25198AA",
    "EPOCH": "2025-11-10T16:50:52.014624",
    "MEAN_MOTION": 15.39631982,
    "ECCENTRICITY": 0.0001704,
    "INCLINATION": 53.1599,
    "RA_OF_ASC_NODE": 109.2802,
    "ARG_OF_PERICENTER": 95.1393,
    "MEAN_ANOMALY": 264.9807,
    "EPHEMERIS_TYPE": 0,
    "CLASSIFICATION_TYPE": "U",
    "NORAD_CAT_ID": 65516,
    "ELEMENT_SET_NO": 999,
    "REV_AT_EPOCH": 1032,
    "BSTAR": 0.0016963,
    "MEAN_MOTION_DOT": 0.00068086,
    "MEAN_MOTION_DDOT": 0.0,
    "TLE_LINE1": "1 65516U 25198AA  25314.70199091  .00068086  00000+0  16963-2 0  9993",
    "TLE_LINE2": "2 65516  53.1599 109.2802 0001704  95.1393 264.9807 15.39631982 10320",
    "COMMENT": "Grouped by shell and plane from TLE"
  },
  {
    "OBJECT_NAME": "STARLINK-35232",
    "OBJECT_ID": "25198AC",
    "EPOCH": "2025-11-11T03:31:50.068128",
    "MEAN_MOTION": 15.39650898,
    "ECCENTRICITY": 0.0001551,
    "INCLINATION": 53.1605,
    "RA_OF_ASC_NODE": 107.0816,
    "ARG_OF_PERICENTER": 66.0749,
    "MEAN_ANOMALY": 294.0418,
    "EPHEMERIS_TYPE": 0,
    "CLASSIFICATION_TYPE": "U",
    "NORAD_CAT_ID": 65518,
    "ELEMENT_SET_NO": 999,
    "REV_AT_EPOCH": 1039,
    "BSTAR": 0.0020654000000000002,
    "MEAN_MOTION_DOT": 0.00083206,
    "MEAN_MOTION_DDOT": 0.0,
    "TLE_LINE1": "1 65518U 25198AC  25315.14710727  .00083206  00000+0  20654-2 0  9992",
    "TLE_LINE2": "2 65518  53.1605 107.0816 0001551  66.0749 294.0418 15.39650898 10399",
    "COMMENT": "Grouped by shell and plane from TLE"
  },
  {
    "OBJECT_NAME": "STARLINK-35164",
    "OBJECT_ID": "25198AD",
    "EPOCH": "2025-11-11T03:25:08.433408",
    "MEAN_MOTION": 15.39681017,
    "ECCENTRICITY": 0.0001489,
    "INCLINATION": 53.1606,
    "RA_OF_ASC_NODE": 107.0503,
    "ARG_OF_PERICENTER": 76.8438,
    "MEAN_ANOMALY": 283.2733,
    "EPHEMERIS_TYPE": 0,
    "CLASSIFICATION_TYPE": "U",
    "NORAD_CAT_ID": 65519,
    "ELEMENT_SET_NO": 999,
    "REV_AT_EPOCH": 1039,
    "BSTAR": 0.0018739,
    "MEAN_MOTION_DOT": 0.00075451,
    "MEAN_MOTION_DDOT": 0.0,
    "TLE_LINE1": "1 65519U 25198AD  25315.14245872  .00075451  00000+0  18739-2 0  9991",
    "TLE_LINE2": "2 65519  53.1606 107.0503 0001489  76.8438 283.2733 15.39681017 10395",
    "COMMENT": "Grouped by shell and plane from TLE"
  }
]